GALAXY 25 (G-25)        
1 24812U 97026A   22328.43720494  .00000015  00000+0  00000+0 0  9995
2 24812   4.0876  82.0202 0006373 193.1270  11.7416  1.00272574 93336
INTELSAT 5 (IS-5)       
1 24916U 97046A   22328.49585598 -.00000047  00000+0  00000+0 0  9998
2 24916   7.5689  59.9236 0006074 183.7173 164.4152  1.00271277 92573
GALAXY 11 (G-11)        
1 26038U 99071A   22328.49471979 -.00000143  00000+0  00000+0 0  9999
2 26038   3.4227  85.5776 0001870 218.5692 204.3113  1.00271107 84045
INTELSAT 9 (IS-9)       
1 26451U 00043A   22328.33559295 -.00000271  00000+0  00000+0 0  9992
2 26451   7.5534  60.1038 0003672 181.4439 252.5464  1.00274217 31107
INTELSAT 1R (IS-1R)     
1 26608U 00072A   22328.49766267 -.00000120  00000+0  00000+0 0  9997
2 26608   4.8039  79.2200 0000750 248.0660  72.4122  1.00271510 28270
INTELSAT 10 (IS-10)     
1 26766U 01019A   22328.50940623  .00000051  00000+0  00000+0 0  9998
2 26766   5.9565  71.9730 0003764 172.9933 179.6776  1.00270244 32570
INTELSAT 901 (IS-901)   
1 26824U 01024A   22328.34681490 -.00000181  00000+0  00000+0 0  9990
2 26824   0.0585  93.1747 0000238 252.6963 174.8040  1.00268396  9940
INTELSAT 902 (IS-902)   
1 26900U 01039A   22328.48584299 -.00000262  00000+0  00000+0 0  9995
2 26900   2.8069  87.2023 0003497 171.7115 289.3307  1.00271302 77655
INTELSAT 904 (IS-904)   
1 27380U 02007A   22328.25604779 -.00000194  00000+0  00000+0 0  9999
2 27380   3.6353  84.2042 0002696 159.0010 242.6852  1.00270554 38724
DIRECTV 5 (TEMPO 1)     
1 27426U 02023A   22328.54457612 -.00000036  00000+0  00000+0 0  9997
2 27426   1.5322  91.2317 0003007 146.7014 271.5077  1.00270776 75081
INTELSAT 905 (IS-905)   
1 27438U 02027A   22328.41916181 -.00000165  00000+0  00000+0 0  9994
2 27438   3.4581  84.9214 0002435 157.8049 307.0579  1.00270435 38322
GALAXY 3C (G-3C)        
1 27445U 02030A   22328.49385824 -.00000132  00000+0  00000+0 0  9992
2 27445   0.3849  91.2908 0001110 227.4111 187.6913  1.00270535 74906
INTELSAT 906 (IS-906)   
1 27513U 02041A   22328.43685628  .00000034  00000+0  00000+0 0  9999
2 27513   2.4762  88.6174 0004499 158.1917  37.9848  1.00270662 73983
GALAXY 12 (G-12)        
1 27715U 03013B   22328.53294028  .00000077  00000+0  00000+0 0  9991
2 27715   3.6689  83.8573 0001483 160.6075 241.8642  1.00271783 39054
GALAXY 23 (G-23)        
1 27854U 03034A   22328.53767382  .00000034  00000+0  00000+0 0  9999
2 27854   0.0212 280.2915 0002977 318.4469 257.3315  1.00271096 70706
GALAXY 13 (HORIZONS-1)  
1 27954U 03044A   22328.41140749  .00000069  00000+0  00000+0 0  9998
2 27954   0.0097  83.6222 0001369 279.9620  80.8991  1.00272351 33521
INTELSAT 10-02          
1 28358U 04022A   22328.43243792  .00000009  00000+0  00000+0 0  9992
2 28358   0.0325  70.2326 0000913 223.9360 283.9007  1.00269261 67500
XM-3 (RHYTHM)           
1 28626U 05008A   22328.47886978 -.00000184  00000+0  00000+0 0  9993
2 28626   0.0238 112.7211 0001561  76.4953 321.4845  1.00267582 29583
DIRECTV 8               
1 28659U 05019A   22328.53925003  .00000022  00000+0  00000+0 0  9991
2 28659   0.0162 311.0249 0002571 294.6234 252.9374  1.00269581 64033
GALAXY 28 (G-28)        
1 28702U 05022A   22328.50873346 -.00000165  00000+0  00000+0 0  9992
2 28702   0.0543  86.9931 0002553 183.9108 246.7080  1.00271079 38942
GALAXY 14 (G-14)        
1 28790U 05030A   22328.50231715  .00000175  00000+0  00000+0 0  9996
2 28790   1.6648  90.4245 0001824 140.4273  46.3338  1.00270115 63264
GALAXY 15 (G-15)        
1 28884U 05041A   22328.53444962  .00000061  00000+0  00000+0 0  9999
2 28884   0.2190  92.1265 0004158 170.7247 226.6664  1.00305394 62572
SPACEWAY 2              
1 28903U 05046B   22328.52695838  .00000123  00000+0  00000+0 0  9994
2 28903   2.2684  86.3026 0000552 170.6576 217.3496  1.00271218 38303
GALAXY 16 (G-16)        
1 29236U 06023A   22328.55076216 -.00000107  00000+0  00000+0 0  9999
2 29236   0.0530 110.1717 0002433 126.7780 285.8290  1.00270775 60226
DIRECTV 9S              
1 29494U 06043A   22328.54921979 -.00000093  00000+0  00000+0 0  9995
2 29494   0.0128 282.9127 0002721 316.1364 280.9750  1.00271667 38347
XM-4 (BLUES)            
1 29520U 06049A   22328.47886978 -.00000185  00000+0  00000+0 0  9994
2 29520   0.0208 301.1522 0001700  33.1866 176.3702  1.00270928 38432
GALAXY 17 (G-17)        
1 31307U 07016B   22328.47764947 -.00000154  00000+0  00000+0 0  9992
2 31307   0.0192 321.2981 0002549 291.9496 251.1552  1.00270359 56766
DIRECTV 10              
1 31862U 07032A   22328.48753889 -.00000082  00000+0  00000+0 0  9990
2 31862   0.0048  68.3210 0000119  85.1778 342.6814  1.00267062 32558
SPACEWAY 3              
1 32018U 07036A   22328.49392596 -.00000131  00000+0  00000+0 0  9998
2 32018   0.6362  90.9573 0000586 354.0321  61.3269  1.00270964 33511
INTELSAT 11 (IS-11)     
1 32253U 07044B   22328.34376411 -.00000247  00000+0  00000+0 0  9998
2 32253   0.1920  93.8176 0002576 171.3516 238.8870  1.00271817 55459
HORIZONS-2              
1 32388U 07063B   22328.42040653 -.00000232  00000+0  00000+0 0  9997
2 32388   0.0127 302.5017 0001908 304.5514 253.8741  1.00270398 54777
DIRECTV 11              
1 32729U 08013A   22328.49094944 -.00000105  00000+0  00000+0 0  9990
2 32729   0.0054  49.1622 0000305  60.7551  31.0867  1.00268189 32555
GALAXY 18 (G-18)        
1 32951U 08024A   22328.53684282  .00000046  00000+0  00000+0 0  9997
2 32951   0.0489 106.3423 0002833 138.2923 249.1236  1.00271325 32818
INTELSAT 25 (IS-25)     
1 33153U 08034A   22328.41776715 -.00000203  00000+0  00000+0 0  9999
2 33153   0.0136 295.0370 0002787 304.7959 302.4382  1.00271553 52658
GALAXY 19 (G-19)        
1 33376U 08045A   22328.49200997 -.00000118  00000+0  00000+0 0  9995
2 33376   0.0675 103.4917 0002774 136.2480 263.8259  1.00270811 51866
FM-5                    
1 35493U 09034A   22328.47860829 -.00000179  00000+0  00000+0 0  9997
2 35493   0.0145 319.8677 0000351 149.9652  39.7677  1.00269925 33607
INTELSAT 14 (IS-14)     
1 36097U 09064A   22328.41506505 -.00000252  00000+0  00000+0 0  9995
2 36097   0.0120 298.5024 0002622 314.8664 274.4489  1.00271577 47564
INTELSAT 15 (IS-15)     
1 36106U 09067A   22328.44104021 -.00000165  00000+0  00000+0 0  9992
2 36106   0.0136 351.8468 0002122 255.4500  60.0343  1.00271715 28180
DIRECTV 12              
1 36131U 09075A   22328.48753963 -.00000083  00000+0  00000+0 0  9997
2 36131   0.0410 144.9931 0000167 306.1424  45.1211  1.00269276 33526
INTELSAT 16 (IS-16)     
1 36397U 10006A   22328.48061308 -.00000224  00000+0  00000+0 0  9999
2 36397   0.0110 344.8761 0001874 253.3486 282.0455  1.00271518 46614
XM-5                    
1 37185U 10053A   22328.39450657 -.00000002  00000+0  00000+0 0  9990
2 37185   0.0164 351.1426 0000455 107.0292 352.0157  1.00269757 44440
INTELSAT 17 (IS-17)     
1 37238U 10065B   22328.40188243  .00000019  00000+0  00000+0 0  9990
2 37238   0.0178 272.5274 0002563 329.6910  31.8195  1.00270568 40196
INTELSAT NEW DAWN       
1 37392U 11016A   22328.50231715  .00000176  00000+0  00000+0 0  9996
2 37392   0.0150 276.5371 0001138 318.4250  42.1497  1.00273493 40245
INTELSAT 18 (IS-18)     
1 37834U 11056A   22328.41788510  .00000073  00000+0  00000+0 0  9997
2 37834   0.0262 352.6345 0001886 236.4053 164.7801  1.00269722 40764
INTELSAT 22 (IS-22)     
1 38098U 12011A   22328.41854764 -.00000039  00000+0  00000+0 0  9990
2 38098   0.0027  30.3383 0002780 209.5554  46.2594  1.00271524 38773
INTELSAT 19 (IS-19)     
1 38356U 12030A   22328.39926715 -.00000036  00000+0  00000+0 0  9998
2 38356   0.0046 335.3923 0002956 269.5012 128.2111  1.00270571 37393
INTELSAT 20 (IS-20)     
1 38740U 12043A   22328.36599118 -.00000004  00000+0  00000+0 0  9994
2 38740   0.0227 134.6233 0003504  62.0175  66.9384  1.00271579 37705
INTELSAT 21 (IS-21)     
1 38749U 12045A   22328.48427402 -.00000264  00000+0  00000+0 0  9992
2 38749   0.0105 307.5502 0002166 285.5740 306.6682  1.00271842 37496
INTELSAT 23 (IS-23)     
1 38867U 12057A   22328.48514566 -.00000264  00000+0  00000+0 0  9994
2 38867   0.0115 295.3219 0001290  63.4705 186.3202  1.00271783 36908
FM-6                    
1 39360U 13058A   22328.49867469  .00000003  00000+0  00000+0 0  9999
2 39360   0.0190 303.5692 0000229 215.1178 328.1259  1.00273227 33021
INTELSAT 30 (IS-30)     
1 40271U 14062A   22328.41492317 -.00000130  00000+0  00000+0 0  9998
2 40271   0.0158 318.7304 0002300 147.6702  11.2915  1.00273544 29543
DIRECTV 14              
1 40333U 14078B   22328.49095000 -.00000105  00000+0  00000+0 0  9992
2 40333   0.0460  92.2932 0000231   0.4883  48.1786  1.00270503 29026
DIRECTV 15              
1 40663U 15026A   22328.48753969 -.00000082  00000+0  00000+0 0  9990
2 40663   0.0141   3.2746 0000413 113.2350  19.5833  1.00268326 27424
SKY MEXICO-1            
1 40664U 15026B   22328.48009009 -.00000214  00000+0  00000+0 0  9997
2 40664   0.0181 311.2847 0001938 290.1204 276.1069  1.00271186 27496
INTELSAT 34 (IS-34)     
1 40874U 15039A   22328.48470984 -.00000265  00000+0  00000+0 0  9994
2 40874   0.0172 313.6254 0000642 188.5117  40.3214  1.00270298 26575
INTELSAT 31 (IS-31)     
1 41581U 16035A   22328.18991799 -.00000129  00000+0  00000+0 0  9995
2 41581   0.0177 266.4192 0002004 289.9016 200.1570  1.00271566 23645
INTELSAT 36 (IS-36)     
1 41747U 16053A   22328.43772793 -.00000004  00000+0  00000+0 0  9990
2 41747   0.0121 340.5909 0001357  38.5822 270.2986  1.00270705 22902
INTELSAT 33E (IS-33E)   
1 41748U 16053B   22328.40743958  .00000069  00000+0  00000+0 0  9999
2 41748   0.0061 326.9820 0001635 266.3336  36.7150  1.00271801 23206
INTELSAT 32E (IS-32E)   
1 41945U 17007B   22328.48723763 -.00000249  00000+0  00000+0 0  9999
2 41945   0.0156 341.6447 0000425 124.8926  89.1364  1.00269327 21205
INTELSAT 35E (IS-35E)   
1 42818U 17041A   22328.41715700 -.00000217  00000+0  00000+0 0  9997
2 42818   0.0129 298.8255 0001412 301.1872 299.0582  1.00270051 19771
INTELSAT 37E (IS-37E)   
1 42950U 17059A   22328.43799250 -.00000120  00000+0  00000+0 0  9990
2 42950   0.0167 349.7125 0002537 245.8728 327.5003  1.00270918 19020
AZERSPACE 2 (IS-38)     
1 43632U 18074A   22328.43302104  .00000157  00000+0  00000+0 0  9993
2 43632   0.0139  18.2257 0001158 222.4328  23.7394  1.00271432 15404
HORIZONS-3E             
1 43633U 18074B   22328.40441045 -.00000010  00000+0  00000+0 0  9998
2 43633   0.0452 108.7002 0000874 191.6288  77.6321  1.00271430 15295
AT&T T-16               
1 44333U 19034A   22328.54999620 -.00000095  00000+0  00000+0 0  9998
2 44333   0.0438 104.3116 0000077 357.0354  59.2794  1.00269747 12589
INTELSAT 39 (IS-39)     
1 44476U 19049B   22328.43642046  .00000054  00000+0  00000+0 0  9991
2 44476   0.0151 313.3303 0000823 167.9493 161.1713  1.00270381 12096
GALAXY 30 (G-30)        
1 46114U 20056C   22328.48860958  .00000058  00000+0  00000+0 0  9995
2 46114   0.0128 303.5478 0001884 282.4774 248.3076  1.00270711  8258
GALAXY 33               
1 54026U 22128A   22328.47851203  .00000099  00000+0  00000+0 0  9995
2 54026   0.0171 332.6947 0002066 269.4209 220.6019  1.00271822   719
GALAXY 34               
1 54027U 22128B   22326.74477758  .00000147  00000+0  00000+0 0  9997
2 54027   0.0167 306.0039 0001401  68.5249 167.7181  1.00392212   714
2022-153A               
1 54243U 22153A   22328.24950838  .00000154  00000+0  00000+0 0  9995
2 54243   0.0175 235.5249 0009113 114.8194  13.7570  1.00142423    94
2022-153B               
1 54244U 22153B   22328.24950875  .00000152  00000+0  00000+0 0  9995
2 54244   0.0425 338.6064 0001841 288.8218  96.5926  1.00267050   102
